{"type": "FeatureCollection", "features": [ {"type": "Feature", "properties": {"norad_id": 31658, "name": "FENGYUN 1C DEB", "group": "fengyun-1c-debris", "lat": -25.223492161382797, "lon": 5.618858691413078, "alt_km": 1017.1975504853699, "timestamp": "2025-12-05T14:45:15.582475+00:00", "meta": {"OBJECT_NAME": "FENGYUN 1C DEB", "OBJECT_ID": "1999-025CBQ", "EPOCH": "2025-11-30T13:35:01.131648", "MEAN_MOTION": 13.98632883, "ECCENTRICITY": 0.0215722, "INCLINATION": 98.1534, "RA_OF_ASC_NODE": 184.9954, "ARG_OF_PERICENTER": 356.7033, "MEAN_ANOMALY": 3.2699, "EPHEMERIS_TYPE": 0, "CLASSIFICATION_TYPE": "U", "NORAD_CAT_ID": 31658, "ELEMENT_SET_NO": 999, "REV_AT_EPOCH": 69646, "BSTAR": 0.0024889, "MEAN_MOTION_DOT": 4.324e-05, "MEAN_MOTION_DDOT": 0}, "tle": {"line1": "1 31658U 99025CBQ 25334.56598532  .00004324  00000+0  24889-2 0  9993", "line2": "2 31658  98.1534 184.9954 0215722 356.7033   3.2699 13.98632883696462"}}, "geometry": {"type": "Point", "coordinates": [5.618858691413078, -25.223492161382797]}}, {"type": "Feature", "properties": {"norad_id": 31660, "name": "FENGYUN 1C DEB", "group": "fengyun-1c-debris", "lat": 71.82498095216006, "lon": -45.9601603297682, "alt_km": 838.5244941763422, "timestamp": "2025-12-05T14:45:15.582486+00:00", "meta": {"OBJECT_NAME": "FENGYUN 1C DEB", "OBJECT_ID": "1999-025CBS", "EPOCH": "2025-12-04T06:25:52.832640", "MEAN_MOTION": 14.27084649, "ECCENTRICITY": 0.0101329, "INCLINATION": 98.5047, "RA_OF_ASC_NODE": 339.8449, "ARG_OF_PERICENTER": 205.5295, "MEAN_ANOMALY": 154.0863, "EPHEMERIS_TYPE": 0, "CLASSIFICATION_TYPE": "U", "NORAD_CAT_ID": 31660, "ELEMENT_SET_NO": 999, "REV_AT_EPOCH": 7795, "BSTAR": 0.0012372, "MEAN_MOTION_DOT": 3.142e-05, "MEAN_MOTION_DDOT": 0}, "tle": {"line1": "1 31660U 99025CBS 25338.26797260  .00003142  00000+0  12372-2 0  9997", "line2": "2 31660  98.5047 339.8449 0101329 205.5295 154.0863 14.27084649 77955"}}, "geometry": {"type": "Point", "coordinates": [-45.9601603297682, 71.82498095216006]}}, {"type": "Feature", "properties": {"norad_id": 31661, "name": "FENGYUN 1C DEB", "group": "fengyun-1c-debris", "lat": -0.4994692738219022, "lon": -121.45386631393303, "alt_km": 791.6479927063065, "timestamp": "2025-12-05T14:45:15.582496+00:00", "meta": {"OBJECT_NAME": "FENGYUN 1C DEB", "OBJECT_ID": "1999-025CBT", "EPOCH": "2025-12-04T16:43:31.524096", "MEAN_MOTION": 14.25332463, "ECCENTRICITY": 0.0057939, "INCLINATION": 98.8613, "RA_OF_ASC_NODE": 57.6971, "ARG_OF_PERICENTER": 246.7222, "MEAN_ANOMALY": 267.1092, "EPHEMERIS_TYPE": 0, "CLASSIFICATION_TYPE": "U", "NORAD_CAT_ID": 31661, "ELEMENT_SET_NO": 999, "REV_AT_EPOCH": 95598, "BSTAR": 0.003862, "MEAN_MOTION_DOT": 9.224e-05, "MEAN_MOTION_DDOT": 0}, "tle": {"line1": "1 31661U 99025CBT 25338.69689264  .00009224  00000+0  38620-2 0  9990", "line2": "2 31661  98.8613  57.6971 0057939 246.7222 267.1092 14.25332463955983"}}, "geometry": {"type": "Point", "coordinates": [-121.45386631393303, -0.4994692738219022]}}, {"type": "Feature", "properties": {"norad_id": 31663, "name": "FENGYUN 1C DEB", "group": "fengyun-1c-debris", "lat": 31.338877920220717, "lon": 72.24774186369064, "alt_km": 686.6727945527155, "timestamp": "2025-12-05T14:45:15.582507+00:00", "meta": {"OBJECT_NAME": "FENGYUN 1C DEB", "OBJECT_ID": "1999-025CBV", "EPOCH": "2025-12-03T11:38:28.212864", "MEAN_MOTION": 14.76310711, "ECCENTRICITY": 0.01897685, "INCLINATION": 98.838, "RA_OF_ASC_NODE": 244.4812, "ARG_OF_PERICENTER": 266.7407, "MEAN_ANOMALY": 91.2075, "EPHEMERIS_TYPE": 0, "CLASSIFICATION_TYPE": "U", "NORAD_CAT_ID": 31663, "ELEMENT_SET_NO": 999, "REV_AT_EPOCH": 99143, "BSTAR": 0.0005527041, "MEAN_MOTION_DOT": 5.081e-05, "MEAN_MOTION_DDOT": 0}, "tle": {"line1": "1 31663U 99025CBV 25337.48504876  .00005081  00000+0  55270-3 0  9991", "line2": "2 31663  98.8380 244.4812 0189768 266.7407  91.2075 14.76310711991434"}}, "geometry": {"type": "Point", "coordinates": [72.24774186369064, 31.338877920220717]}}, {"type": "Feature", "properties": {"norad_id": 31664, "name": "FENGYUN 1C DEB", "group": "fengyun-1c-debris", "lat": -46.50574789758811, "lon": 141.97345506029657, "alt_km": 805.2450422392749, "timestamp": "2025-12-05T14:45:15.582517+00:00", "meta": {"OBJECT_NAME": "FENGYUN 1C DEB", "OBJECT_ID": "1999-025CBW", "EPOCH": "2025-12-03T10:36:10.391616", "MEAN_MOTION": 14.10277836, "ECCENTRICITY": 0.01244156, "INCLINATION": 98.7516, "RA_OF_ASC_NODE": 329.2022, "ARG_OF_PERICENTER": 184.4459, "MEAN_ANOMALY": 175.5617, "EPHEMERIS_TYPE": 0, "CLASSIFICATION_TYPE": "U", "NORAD_CAT_ID": 31664, "ELEMENT_SET_NO": 999, "REV_AT_EPOCH": 95870, "BSTAR": 0.00040064903, "MEAN_MOTION_DOT": 7.21e-06, "MEAN_MOTION_DDOT": 0}, "tle": {"line1": "1 31664U 99025CBW 25337.44178694  .00000721  00000+0  40065-3 0  9995", "line2": "2 31664  98.7516 329.2022 0124415 184.4459 175.5617 14.10277836958700"}}, "geometry": {"type": "Point", "coordinates": [141.97345506029657, -46.50574789758811]}}, {"type": "Feature", "properties": {"norad_id": 31665, "name": "FENGYUN 1C DEB", "group": "fengyun-1c-debris", "lat": -3.7155266358849466, "lon": -157.27656875930515, "alt_km": 821.6051790513657, "timestamp": "2025-12-05T14:45:15.582528+00:00", "meta": {"OBJECT_NAME": "FENGYUN 1C DEB", "OBJECT_ID": "1999-025CBX", "EPOCH": "2025-11-29T13:55:45.257088", "MEAN_MOTION": 13.84758836, "ECCENTRICITY": 0.01900248, "INCLINATION": 98.4512, "RA_OF_ASC_NODE": 17.8375, "ARG_OF_PERICENTER": 222.9369, "MEAN_ANOMALY": 135.6823, "EPHEMERIS_TYPE": 0, "CLASSIFICATION_TYPE": "U", "NORAD_CAT_ID": 31665, "ELEMENT_SET_NO": 999, "REV_AT_EPOCH": 93009, "BSTAR": 0.0012069056, "MEAN_MOTION_DOT": 1.525e-05, "MEAN_MOTION_DDOT": 0}, "tle": {"line1": "1 31665U 99025CBX 25333.58038492  .00001525  00000+0  12069-2 0  9993", "line2": "2 31665  98.4512  17.8375 0190024 222.9369 135.6823 13.84758836930094"}}, "geometry": {"type": "Point", "coordinates": [-157.27656875930515, -3.7155266358849466]}}, {"type": "Feature", "properties": {"norad_id": 31666, "name": "FENGYUN 1C DEB", "group": "fengyun-1c-debris", "lat": -61.99968548719972, "lon": -68.95334540912255, "alt_km": 619.9659574219631, "timestamp": "2025-12-05T14:45:15.582538+00:00", "meta": {"OBJECT_NAME": "FENGYUN 1C DEB", "OBJECT_ID": "1999-025CBY", "EPOCH": "2025-12-01T09:15:11.992608", "MEAN_MOTION": 14.82644549, "ECCENTRICITY": 0.00263225, "INCLINATION": 98.6562, "RA_OF_ASC_NODE": 123.1201, "ARG_OF_PERICENTER": 188.8412, "MEAN_ANOMALY": 171.2339, "EPHEMERIS_TYPE": 0, "CLASSIFICATION_TYPE": "U", "NORAD_CAT_ID": 31666, "ELEMENT_SET_NO": 999, "REV_AT_EPOCH": 97103, "BSTAR": 0.0054771362, "MEAN_MOTION_DOT": 0.0004461, "MEAN_MOTION_DDOT": 0}, "tle": {"line1": "1 31666U 99025CBY 25335.38555547  .00044610  00000+0  54771-2 0  9997", "line2": "2 31666  98.6562 123.1201 0026322 188.8412 171.2339 14.82644549971030"}}, "geometry": {"type": "Point", "coordinates": [-68.95334540912255, -61.99968548719972]}}, {"type": "Feature", "properties": {"norad_id": 31667, "name": "FENGYUN 1C DEB", "group": "fengyun-1c-debris", "lat": 80.90867090372446, "lon": 101.49744038037318, "alt_km": 770.7042484121994, "timestamp": "2025-12-05T14:45:15.582549+00:00", "meta": {"OBJECT_NAME": "FENGYUN 1C DEB", "OBJECT_ID": "1999-025CBZ", "EPOCH": "2025-12-03T10:02:22.672608", "MEAN_MOTION": 14.2348358, "ECCENTRICITY": 0.00516043, "INCLINATION": 99.0856, "RA_OF_ASC_NODE": 189.1139, "ARG_OF_PERICENTER": 113.7693, "MEAN_ANOMALY": 246.8908, "EPHEMERIS_TYPE": 0, "CLASSIFICATION_TYPE": "U", "NORAD_CAT_ID": 31667, "ELEMENT_SET_NO": 999, "REV_AT_EPOCH": 55860, "BSTAR": 0.0003571101, "MEAN_MOTION_DOT": 7.76e-06, "MEAN_MOTION_DDOT": 0}, "tle": {"line1": "1 31667U 99025CBZ 25337.41831797  .00000776  00000+0  35711-3 0  9997", "line2": "2 31667  99.0856 189.1139 0051604 113.7693 246.8908 14.23483580558609"}}, "geometry": {"type": "Point", "coordinates": [101.49744038037318, 80.90867090372446]}}, {"type": "Feature", "properties": {"norad_id": 31672, "name": "FENGYUN 1C DEB", "group": "fengyun-1c-debris", "lat": -4.810074577092023, "lon": -14.00519802231546, "alt_km": 803.5232847175221, "timestamp": "2025-12-05T14:45:15.582559+00:00", "meta": {"OBJECT_NAME": "FENGYUN 1C DEB", "OBJECT_ID": "1999-025CCE", "EPOCH": "2025-12-03T05:37:36.272640", "MEAN_MOTION": 14.50722016, "ECCENTRICITY": 0.0108218, "INCLINATION": 98.9573, "RA_OF_ASC_NODE": 164.223, "ARG_OF_PERICENTER": 10.2835, "MEAN_ANOMALY": 350.0536, "EPHEMERIS_TYPE": 0, "CLASSIFICATION_TYPE": "U", "NORAD_CAT_ID": 31672, "ELEMENT_SET_NO": 999, "REV_AT_EPOCH": 64733, "BSTAR": 0.001939, "MEAN_MOTION_DOT": 8.176e-05, "MEAN_MOTION_DDOT": 0}, "tle": {"line1": "1 31672U 99025CCE 25337.23444760  .00008176  00000+0  19390-2 0  9999", "line2": "2 31672  98.9573 164.2230 0108218  10.2835 350.0536 14.50722016647332"}}, "geometry": {"type": "Point", "coordinates": [-14.00519802231546, -4.810074577092023]}}, {"type": "Feature", "properties": {"norad_id": 31673, "name": "FENGYUN 1C DEB", "group": "fengyun-1c-debris", "lat": -59.49801308564523, "lon": -170.20161505687614, "alt_km": 849.8301006699412, "timestamp": "2025-12-05T14:45:15.582570+00:00", "meta": {"OBJECT_NAME": "FENGYUN 1C DEB", "OBJECT_ID": "1999-025CCF", "EPOCH": "2025-12-01T12:05:46.557312", "MEAN_MOTION": 14.31920513, "ECCENTRICITY": 0.01258857, "INCLINATION": 99.374, "RA_OF_ASC_NODE": 169.0754, "ARG_OF_PERICENTER": 81.1692, "MEAN_ANOMALY": 280.3719, "EPHEMERIS_TYPE": 0, "CLASSIFICATION_TYPE": "U", "NORAD_CAT_ID": 31673, "ELEMENT_SET_NO": 999, "REV_AT_EPOCH": 64730, "BSTAR": 0.00025702529, "MEAN_MOTION_DOT": 7e-06, "MEAN_MOTION_DDOT": 0}, "tle": {"line1": "1 31673U 99025CCF 25335.50401108  .00000700  00000+0  25703-3 0  9998", "line2": "2 31673  99.3740 169.0754 0125885  81.1692 280.3719 14.31920513647301"}}, "geometry": {"type": "Point", "coordinates": [-170.20161505687614, -59.49801308564523]}}]}